satname,norad_id,inclination_deg,eccentricity,mean_motion_rev_per_day,perigee_km,apogee_km,l1,l2
STARLINK-1446,45663,53.027,0.0005734,15.39806912,442.7664519069458,450.5931518153193,1 45663U 20035G   26002.28365741  .00030460  00000+0  76337-3 0  9991,2 45663  53.0270 314.0729 0005734  70.4994 289.6628 15.39806912309435
STARLINK-1448,45665,53.0586,0.0001488,15.06395113,546.1960418357676,548.2570300240604,1 45665U 20035J   26002.28064847  .00000290  00000+0  38397-4 0  9999,2 45665  53.0586   4.7397 0001488  98.0539 262.0619 15.06395113308719
STARLINK-1451,45668,53.0549,0.000158,15.06546411,545.6687314726832,547.85699983023,1 45668U 20035M   26002.41693462  .00034124  00000+0  22897-2 0  9997,2 45668  53.0549   4.4472 0001580  88.8010 271.3160 15.06546411308742
STARLINK-1452,45669,53.0381,0.0003098,15.34567807,460.0853900844404,464.32366569512124,1 45669U 20035N   26002.91668980  .00130559  00000+0  37877-2 0  9993,2 45669  53.0381 332.4722 0003098 134.3285 230.6944 15.34567807  5853
STARLINK-1453,45670,53.0548,0.000537,15.38853012,445.8334354183635,453.16631742363916,1 45670U 20035P   26002.91668980  .00133203  00000+0  33643-2 0  9991,2 45670  53.0548 326.7668 0005370  87.5597 158.0472 15.38853012  5865
STARLINK-1454,45671,53.0556,0.0001497,15.06403844,546.1630537415031,548.2364995724338,1 45671U 20035Q   26002.37277003 -.00001905  00000+0 -10903-3 0  9994,2 45671  53.0556   4.3302 0001497  93.5733 266.5427 15.06403844308729
STARLINK-1456,45673,53.0548,0.0003664,15.36905503,452.76271683078903,457.7702348979037,1 45673U 20035S   26002.91668980  .00132023  00000+0  35533-2 0  9993,2 45673  53.0548 358.8072 0003664  69.2378  63.0294 15.36905503  5724
STARLINK-1457,45674,53.0518,0.0012168,15.53147791,399.28530799773944,415.79893670989895,1 45674U 20035T   26002.91668980  .00206788  00000+0  31567-2 0  9997,2 45674  53.0518 346.3102 0012168  49.2096 281.6149 15.53147791  5905
STARLINK-1458,45675,53.0561,0.000146,15.06406995,546.1790215942747,548.2012171131264,1 45675U 20035U   26002.31749372  .00002651  00000+0  19675-3 0  9997,2 45675  53.0561   4.5739 0001460  88.1368 271.9788 15.06406995308695
STARLINK-1460,45676,53.0537,0.0001395,15.06407848,546.2214222845669,548.1535878214763,1 45676U 20035V   26002.42069719  .00005368  00000+0  37893-3 0  9990,2 45676  53.0537   4.1125 0001395  94.3159 265.7990 15.06407848308704
STARLINK-1392,45677,53.0546,0.0001546,15.0639595,546.1533098267209,548.29463143884,1 45677U 20035W   26002.29906755 -.00000135  00000+0  98134-5 0  9991,2 45677  53.0546   4.6603 0001546  95.2560 264.8605 15.06395950308720
STARLINK-1394,45679,53.0558,0.0002618,15.37432814,451.9153233073803,455.4924752022307,1 45679U 20035Y   26002.35414564  .00126408  00000+0  33479-2 0  9991,2 45679  53.0558 351.5131 0002618  85.4868 274.6434 15.37432814308913
STARLINK-1402,45685,53.0539,0.0008581,15.34367939,456.92832713329153,468.6687406965966,1 45685U 20035AE  26002.91668980  .00122059  00000+0  35654-2 0  9998,2 45685  53.0539 334.0533 0008581  43.6139  87.3018 15.34367939  5691
STARLINK-1404,45686,53.0546,0.0001409,15.06388163,546.2720501524818,548.2236235995142,1 45686U 20035AF  26002.38846380  .00010553  00000+0  72651-3 0  9996,2 45686  53.0546 354.2591 0001409  86.5728 273.5422 15.06388163308886
STARLINK-1413,45689,53.0561,0.0001417,15.06392473,546.253302045674,548.2159523648234,1 45689U 20035AJ  26002.40688288  .00000254  00000+0  35953-4 0  9995,2 45689  53.0561 354.1740 0001417  93.2483 266.8668 15.06392473308799
STARLINK-1417,45693,53.0538,0.0005569,15.08817708,535.958921993988,543.6641330639495,1 45693U 20035AN  26002.36936757  .00045970  00000+0  28884-2 0  9999,2 45693  53.0538 353.9875 0005569  44.3201 315.8234 15.08817708308879
STARLINK-1420,45695,53.0567,0.0002018,15.06411258,545.7795256285144,548.5745823807101,1 45695U 20035AQ  26002.60312363  .00007062  00000+0  49240-3 0  9999,2 45695  53.0567 333.2777 0002018  70.8335 289.2873 15.06411258309190
STARLINK-1422,45696,53.0549,0.000129,15.06430507,546.2247020522582,548.0114178577269,1 45696U 20035AR  26002.41425196  .00012496  00000+0  85558-3 0  9997,2 45696  53.0549 354.1412 0001290  94.4028 265.7109 15.06430507308874
STARLINK-1351,45697,53.0557,0.0001799,15.10223194,534.2749787982184,536.7625121354367,1 45697U 20035AS  26002.62996518  .00040727  00000+0  24668-2 0  9994,2 45697  53.0557 332.9046 0001799 105.0748 255.0442 15.10223194309200
STARLINK-1398,45699,53.046,0.000715,15.65461893,367.0844044362166,376.7369726308207,1 45699U 20035AU  26002.91668980  .00101428  00000+0  98732-3 0  9997,2 45699  53.0460 268.5215 0007150  98.5489 261.7626 15.65461893  5999
STARLINK-1400,45700,53.0557,0.0001401,15.06407436,546.2185296229418,548.1590059030696,1 45700U 20035AV  26002.62987499 -.00000747  00000+0 -31241-4 0  9994,2 45700  53.0557 333.1747 0001401  74.4310 285.6834 15.06407436309190
STARLINK-1403,45701,53.0546,0.0001351,15.0639795,546.2822254611419,548.1534563391542,1 45701U 20035AW  26002.32763775  .00004816  00000+0  34200-3 0  9997,2 45701  53.0546 334.5300 0001351  79.8777 280.2365 15.06397950309143
STARLINK-1407,45703,53.04,0.000495,15.47752248,419.93640926973785,426.66983499064645,1 45703U 20035AY  26002.57579309  .00043290  00000+0  82537-3 0  9999,2 45703  53.0400 274.9152 0004950 239.4106 120.6412 15.47752248310012
STARLINK-1411,45706,53.0503,0.0002415,15.51149327,411.7290614889125,415.0093589884573,1 45706U 20035BB  26002.54402733  .00084508  00000+0  14157-2 0  9994,2 45706  53.0503 301.8230 0002415 120.6862 239.4385 15.51149327309626
STARLINK-1423,45710,53.0553,0.0001231,15.06405232,546.3430142246953,548.0480310917737,1 45710U 20035BF  26002.61881470  .00001312  00000+0  10692-3 0  9999,2 45710  53.0553 333.2191 0001231  79.8327 280.2801 15.06405232309196
STARLINK-1433,45711,53.0555,0.0001693,15.06407824,546.0151211577677,548.3600360600858,1 45711U 20035BG  26002.33502047  .00012409  00000+0  85032-3 0  9998,2 45711  53.0555 334.4970 0001693  78.4152 281.7027 15.06407824309140
STARLINK-1434,45712,53.0486,0.0002384,15.19944359,504.36743477962045,507.64979540889726,1 45712U 20035BH  26002.62303031  .00079185  00000+0  36119-2 0  9998,2 45712  53.0486 324.3763 0002384  23.0106 337.0995 15.19944359309327
STARLINK-1465,45731,53.0537,0.0001353,15.06399043,546.2774909502641,548.1514910637306,1 45731U 20038B   26002.69990770  .00000435  00000+0  48112-4 0  9991,2 45731  53.0537 172.8568 0001353  92.7527 267.3617 15.06399043306243
STARLINK-1471,45735,53.0505,0.0001656,15.44132355,432.80059085612993,435.05674700568034,1 45735U 20038F   26002.53128099  .00034820  00000+0  75431-3 0  9993,2 45735  53.0505  97.7904 0001656  62.6781 297.4393 15.44132355307299
STARLINK-1474,45738,53.0309,0.0004503,15.81660431,322.72593448070165,328.7634503328836,1 45738U 20038J   26002.91668980  .00246382  00000+0  11725-2 0  9999,2 45738  53.0309  38.8582 0004503  59.1300 328.1384 15.81660431  5990
STARLINK-1480,45741,53.0541,0.0001012,15.36572812,455.56115607765423,456.9444365724303,1 45741U 20038M   26002.77461601  .00023657  00000+0  66167-3 0  9997,2 45741  53.0541 169.9986 0001012  68.9419 291.1691 15.36572812306301
STARLINK-1500,45744,53.0379,0.0002657,15.31049567,470.85932657147987,474.4998505066287,1 45744U 20038Q   26002.69517172  .00035467  00000+0  11725-2 0  9997,2 45744  53.0379 141.4166 0002657  54.5602 305.5645 15.31049567306691
STARLINK-1504,45746,53.0251,0.0002152,15.47927519,421.3261374122412,424.25325626256017,1 45746U 20038S   26002.56437009  .00071298  00000+0  13413-2 0  9993,2 45746  53.0251 100.0509 0002152  14.4402 345.6666 15.47927519307257
STARLINK-1506,45747,53.0756,0.0003484,15.23801009,491.9937458579916,496.78252137109484,1 45747U 20038T   26002.66601997  .00014841  00000+0  62092-3 0  9993,2 45747  53.0756 147.2190 0003484  71.6239 288.5137 15.23801009306615
STARLINK-1464,45751,53.0536,0.0001232,15.06400724,546.356136314479,548.0625416524044,1 45751U 20038X   26002.68333850  .00005281  00000+0  37317-3 0  9990,2 45751  53.0536 152.9323 0001232 104.9013 255.2112 15.06400724306531
STARLINK-1477,45754,53.0509,0.0004618,15.10252111,532.2378085863902,538.6231795239,1 45754U 20038AA  26002.67844394  .00056269  00000+0  33908-2 0  9995,2 45754  53.0509 152.0447 0004618 155.0454 205.0761 15.10252111306543
STARLINK-1478,45755,53.0555,0.0001153,15.18271492,510.27010366282866,511.8587535122615,1 45755U 20038AB  26002.91668980  .01043441  00000+0  46652-1 0  9996,2 45755  53.0555 151.5117 0001153  75.4707 122.0081 15.18271492  5854
STARLINK-1484,45756,53.0104,0.0003976,15.74477233,343.4456229577263,348.792751477803,1 45756U 20038AC  26002.91668980  .00202969  00000+0  13397-2 0  9999,2 45756  53.0104  29.5632 0003976  48.1109  83.8600 15.74477233  6034
STARLINK-1493,45759,53.0555,0.0001138,15.06402009,546.4172966842771,547.9935046146647,1 45759U 20038AF  26002.63909071 -.00000617  00000+0 -22516-4 0  9993,2 45759  53.0555 153.1290 0001138  91.1684 268.9436 15.06402009306518
STARLINK-1494,45760,53.0521,0.0002073,15.57337434,393.9623498362689,396.7706443861716,1 45760U 20038AG  26002.55048187  .00062863  00000+0  84454-3 0  9995,2 45760  53.0521 117.1866 0002073 215.5936 144.4937 15.57337434307029
STARLINK-1502,45764,53.0539,0.0001321,15.06400197,546.2961156969732,548.1257926264625,1 45764U 20038AL  26002.67226495  .00001849  00000+0  14300-3 0  9992,2 45764  53.0539 152.9817 0001321  78.8620 281.2517 15.06400197306530
STARLINK-1470,45772,53.0478,0.0003393,15.22691949,495.391839875394,500.05779970630465,1 45772U 20038AU  26002.68450307  .00050223  00000+0  21271-2 0  9997,2 45772  53.0478 119.3431 0003393 132.5578 227.5705 15.22691949307001
STARLINK-1482,45773,53.0553,0.0001373,15.0640469,546.2463354176189,548.1480321844911,1 45773U 20038AV  26002.63724787  .00010589  00000+0  72863-3 0  9994,2 45773  53.0553 133.1391 0001373  84.4616 275.6530 15.06404690306803
